HTV-X1                  
1 66174U 25241A   26073.34423281  .00013297  00000+0  57208-3 0  9999
2 66174  51.6357  50.7100 0005738 187.3558 172.7336 15.22910164 21661
SZ-21 MODULE            
1 66515U 25246C   26077.53946753  .00028586  00000+0  24029-3 0  9994
2 66515  41.4738 148.8547 0000478 292.1706  67.9085 15.69230343 19466
SHENZHOU-22             
1 66645U 25272A   26077.41710101  .00021654  00000+0  25231-3 0  9995
2 66645  41.4669 155.0409 0005981 326.6745  33.3717 15.61133273278945
SOYUZ-MS 28             
1 66664U 25275A   26077.35508505  .00007746  00000+0  15190-3 0  9994
2 66664  51.6340  29.5200 0006241 204.1942 155.8754 15.48355497557713
DUPLEX                  
1 66906U 98067XS  26076.93265565  .00024045  00000+0  33549-3 0  9990
2 66906  51.6300  28.2024 0002916 147.7236 212.3935 15.56752750 16410
ISS OBJECT XT           
1 66907U 98067XT  26077.10831299  .00144711  00000+0  10639-2 0  9991
2 66907  51.6256  22.6028 0005010 136.0050 224.1347 15.72107218 16505
ISS OBJECT XU           
1 66908U 98067XU  26077.10578143  .00150765  00000+0  11000-2 0  9997
2 66908  51.6254  22.5822 0005228 136.7142 223.4268 15.72262943 16506
SILVERSAT               
1 66909U 98067XV  26077.08947402  .00188918  00000+0  11693-2 0  9992
2 66909  51.6243  21.7188 0005600 137.5324 222.6110 15.75954146 16510
ISS OBJECT XW           
1 66910U 98067XW  26077.04385713  .00126852  00000+0  97350-3 0  9995
2 66910  51.6248  22.9144 0005598 137.0995 223.0441 15.71148756 16494
ISS OBJECT XX           
1 66911U 98067XX  26077.06683133  .00252305  00000+0  12796-2 0  9998
2 66911  51.6212  20.7915 0007243 141.9689 218.1825 15.80205228 16513
ISS OBJECT XY           
1 66912U 98067XY  26077.01299966  .00078591  00000+0  77195-3 0  9999
2 66912  51.6278  24.9814 0003628 139.1687 220.9580 15.65332059 16458
KNACKSAT-2              
1 67683U 98067XZ  26077.41913944  .00029697  00000+0  48008-3 0  9992
2 67683  51.6316  28.4495 0009689 216.6258 143.4071 15.52544245  6146
