CCSDS_OMM_VERS = 2.0
CREATION_DATE  = 
ORIGINATOR     = 

OBJECT_NAME    = HTV-X1
OBJECT_ID      = 2025-241A
CENTER_NAME    = EARTH
REF_FRAME      = TEME
TIME_SYSTEM    = UTC
MEAN_ELEMENT_THEORY = SGP/SGP4

EPOCH          = 2026-03-14T08:15:41.714784
MEAN_MOTION    = 15.22910164
ECCENTRICITY   = .00057383
INCLINATION    = 51.6357
RA_OF_ASC_NODE = 50.7100
ARG_OF_PERICENTER = 187.3558
MEAN_ANOMALY   = 172.7336

EPHEMERIS_TYPE = 0
CLASSIFICATION_TYPE = U
NORAD_CAT_ID   = 66174
ELEMENT_SET_NO = 999
REV_AT_EPOCH   = 2166
BSTAR          = .57208053E-3
MEAN_MOTION_DOT = .13297E-3
MEAN_MOTION_DDOT = 0

CCSDS_OMM_VERS = 2.0
CREATION_DATE  = 
ORIGINATOR     = 

OBJECT_NAME    = SZ-21 MODULE
OBJECT_ID      = 2025-246C
CENTER_NAME    = EARTH
REF_FRAME      = TEME
TIME_SYSTEM    = UTC
MEAN_ELEMENT_THEORY = SGP/SGP4

EPOCH          = 2026-03-18T12:56:49.994592
MEAN_MOTION    = 15.69230343
ECCENTRICITY   = .0000478
INCLINATION    = 41.4738
RA_OF_ASC_NODE = 148.8547
ARG_OF_PERICENTER = 292.1706
MEAN_ANOMALY   = 67.9085

EPHEMERIS_TYPE = 0
CLASSIFICATION_TYPE = U
NORAD_CAT_ID   = 66515
ELEMENT_SET_NO = 999
REV_AT_EPOCH   = 1946
BSTAR          = .24029E-3
MEAN_MOTION_DOT = .28586E-3
MEAN_MOTION_DDOT = 0

CCSDS_OMM_VERS = 2.0
CREATION_DATE  = 
ORIGINATOR     = 

OBJECT_NAME    = SHENZHOU-22
OBJECT_ID      = 2025-272A
CENTER_NAME    = EARTH
REF_FRAME      = TEME
TIME_SYSTEM    = UTC
MEAN_ELEMENT_THEORY = SGP/SGP4

EPOCH          = 2026-03-18T10:00:37.527264
MEAN_MOTION    = 15.61133273
ECCENTRICITY   = .0005981
INCLINATION    = 41.4669
RA_OF_ASC_NODE = 155.0409
ARG_OF_PERICENTER = 326.6745
MEAN_ANOMALY   = 33.3717

EPHEMERIS_TYPE = 0
CLASSIFICATION_TYPE = U
NORAD_CAT_ID   = 66645
ELEMENT_SET_NO = 999
REV_AT_EPOCH   = 27894
BSTAR          = .25231E-3
MEAN_MOTION_DOT = .21654E-3
MEAN_MOTION_DDOT = 0

CCSDS_OMM_VERS = 2.0
CREATION_DATE  = 
ORIGINATOR     = 

OBJECT_NAME    = SOYUZ-MS 28
OBJECT_ID      = 2025-275A
CENTER_NAME    = EARTH
REF_FRAME      = TEME
TIME_SYSTEM    = UTC
MEAN_ELEMENT_THEORY = SGP/SGP4

EPOCH          = 2026-03-18T08:31:19.348320
MEAN_MOTION    = 15.48355497
ECCENTRICITY   = .0006241
INCLINATION    = 51.6340
RA_OF_ASC_NODE = 29.5200
ARG_OF_PERICENTER = 204.1942
MEAN_ANOMALY   = 155.8754

EPHEMERIS_TYPE = 0
CLASSIFICATION_TYPE = U
NORAD_CAT_ID   = 66664
ELEMENT_SET_NO = 999
REV_AT_EPOCH   = 55771
BSTAR          = .1519E-3
MEAN_MOTION_DOT = .7746E-4
MEAN_MOTION_DDOT = 0

CCSDS_OMM_VERS = 2.0
CREATION_DATE  = 
ORIGINATOR     = 

OBJECT_NAME    = DUPLEX
OBJECT_ID      = 1998-067XS
CENTER_NAME    = EARTH
REF_FRAME      = TEME
TIME_SYSTEM    = UTC
MEAN_ELEMENT_THEORY = SGP/SGP4

EPOCH          = 2026-03-17T22:23:01.448160
MEAN_MOTION    = 15.56752750
ECCENTRICITY   = .00029165
INCLINATION    = 51.6300
RA_OF_ASC_NODE = 28.2024
ARG_OF_PERICENTER = 147.7236
MEAN_ANOMALY   = 212.3935

EPHEMERIS_TYPE = 0
CLASSIFICATION_TYPE = U
NORAD_CAT_ID   = 66906
ELEMENT_SET_NO = 999
REV_AT_EPOCH   = 1641
BSTAR          = .33548582E-3
MEAN_MOTION_DOT = .24045E-3
MEAN_MOTION_DDOT = 0

CCSDS_OMM_VERS = 2.0
CREATION_DATE  = 
ORIGINATOR     = 

OBJECT_NAME    = ISS OBJECT XT
OBJECT_ID      = 1998-067XT
CENTER_NAME    = EARTH
REF_FRAME      = TEME
TIME_SYSTEM    = UTC
MEAN_ELEMENT_THEORY = SGP/SGP4

EPOCH          = 2026-03-18T02:35:58.242336
MEAN_MOTION    = 15.72107218
ECCENTRICITY   = .00050103
INCLINATION    = 51.6256
RA_OF_ASC_NODE = 22.6028
ARG_OF_PERICENTER = 136.0050
MEAN_ANOMALY   = 224.1347

EPHEMERIS_TYPE = 0
CLASSIFICATION_TYPE = U
NORAD_CAT_ID   = 66907
ELEMENT_SET_NO = 999
REV_AT_EPOCH   = 1650
BSTAR          = .10638676E-2
MEAN_MOTION_DOT = .144711E-2
MEAN_MOTION_DDOT = 0

CCSDS_OMM_VERS = 2.0
CREATION_DATE  = 
ORIGINATOR     = 

OBJECT_NAME    = ISS OBJECT XU
OBJECT_ID      = 1998-067XU
CENTER_NAME    = EARTH
REF_FRAME      = TEME
TIME_SYSTEM    = UTC
MEAN_ELEMENT_THEORY = SGP/SGP4

EPOCH          = 2026-03-18T02:32:19.515552
MEAN_MOTION    = 15.72262943
ECCENTRICITY   = .00052282
INCLINATION    = 51.6254
RA_OF_ASC_NODE = 22.5822
ARG_OF_PERICENTER = 136.7142
MEAN_ANOMALY   = 223.4268

EPHEMERIS_TYPE = 0
CLASSIFICATION_TYPE = U
NORAD_CAT_ID   = 66908
ELEMENT_SET_NO = 999
REV_AT_EPOCH   = 1650
BSTAR          = .11000467E-2
MEAN_MOTION_DOT = .150765E-2
MEAN_MOTION_DDOT = 0

CCSDS_OMM_VERS = 2.0
CREATION_DATE  = 
ORIGINATOR     = 

OBJECT_NAME    = SILVERSAT
OBJECT_ID      = 1998-067XV
CENTER_NAME    = EARTH
REF_FRAME      = TEME
TIME_SYSTEM    = UTC
MEAN_ELEMENT_THEORY = SGP/SGP4

EPOCH          = 2026-03-18T02:08:50.555328
MEAN_MOTION    = 15.75954146
ECCENTRICITY   = .00056001
INCLINATION    = 51.6243
RA_OF_ASC_NODE = 21.7188
ARG_OF_PERICENTER = 137.5324
MEAN_ANOMALY   = 222.6110

EPHEMERIS_TYPE = 0
CLASSIFICATION_TYPE = U
NORAD_CAT_ID   = 66909
ELEMENT_SET_NO = 999
REV_AT_EPOCH   = 1651
BSTAR          = .11692677E-2
MEAN_MOTION_DOT = .188918E-2
MEAN_MOTION_DDOT = 0

CCSDS_OMM_VERS = 2.0
CREATION_DATE  = 
ORIGINATOR     = 

OBJECT_NAME    = ISS OBJECT XW
OBJECT_ID      = 1998-067XW
CENTER_NAME    = EARTH
REF_FRAME      = TEME
TIME_SYSTEM    = UTC
MEAN_ELEMENT_THEORY = SGP/SGP4

EPOCH          = 2026-03-18T01:03:09.256032
MEAN_MOTION    = 15.71148756
ECCENTRICITY   = .00055983
INCLINATION    = 51.6248
RA_OF_ASC_NODE = 22.9144
ARG_OF_PERICENTER = 137.0995
MEAN_ANOMALY   = 223.0441

EPHEMERIS_TYPE = 0
CLASSIFICATION_TYPE = U
NORAD_CAT_ID   = 66910
ELEMENT_SET_NO = 999
REV_AT_EPOCH   = 1649
BSTAR          = .9734956E-3
MEAN_MOTION_DOT = .126852E-2
MEAN_MOTION_DDOT = 0

CCSDS_OMM_VERS = 2.0
CREATION_DATE  = 
ORIGINATOR     = 

OBJECT_NAME    = ISS OBJECT XX
OBJECT_ID      = 1998-067XX
CENTER_NAME    = EARTH
REF_FRAME      = TEME
TIME_SYSTEM    = UTC
MEAN_ELEMENT_THEORY = SGP/SGP4

EPOCH          = 2026-03-18T01:36:14.226912
MEAN_MOTION    = 15.80205228
ECCENTRICITY   = .00072437
INCLINATION    = 51.6212
RA_OF_ASC_NODE = 20.7915
ARG_OF_PERICENTER = 141.9689
MEAN_ANOMALY   = 218.1825

EPHEMERIS_TYPE = 0
CLASSIFICATION_TYPE = U
NORAD_CAT_ID   = 66911
ELEMENT_SET_NO = 999
REV_AT_EPOCH   = 1651
BSTAR          = .12795822E-2
MEAN_MOTION_DOT = .252305E-2
MEAN_MOTION_DDOT = 0

CCSDS_OMM_VERS = 2.0
CREATION_DATE  = 
ORIGINATOR     = 

OBJECT_NAME    = ISS OBJECT XY
OBJECT_ID      = 1998-067XY
CENTER_NAME    = EARTH
REF_FRAME      = TEME
TIME_SYSTEM    = UTC
MEAN_ELEMENT_THEORY = SGP/SGP4

EPOCH          = 2026-03-18T00:18:43.170624
MEAN_MOTION    = 15.65332059
ECCENTRICITY   = .00036282
INCLINATION    = 51.6278
RA_OF_ASC_NODE = 24.9814
ARG_OF_PERICENTER = 139.1687
MEAN_ANOMALY   = 220.9580

EPHEMERIS_TYPE = 0
CLASSIFICATION_TYPE = U
NORAD_CAT_ID   = 66912
ELEMENT_SET_NO = 999
REV_AT_EPOCH   = 1645
BSTAR          = .77195145E-3
MEAN_MOTION_DOT = .78591E-3
MEAN_MOTION_DDOT = 0

CCSDS_OMM_VERS = 2.0
CREATION_DATE  = 
ORIGINATOR     = 

OBJECT_NAME    = KNACKSAT-2
OBJECT_ID      = 1998-067XZ
CENTER_NAME    = EARTH
REF_FRAME      = TEME
TIME_SYSTEM    = UTC
MEAN_ELEMENT_THEORY = SGP/SGP4

EPOCH          = 2026-03-18T10:03:33.647616
MEAN_MOTION    = 15.52544245
ECCENTRICITY   = .0009689
INCLINATION    = 51.6316
RA_OF_ASC_NODE = 28.4495
ARG_OF_PERICENTER = 216.6258
MEAN_ANOMALY   = 143.4071

EPHEMERIS_TYPE = 0
CLASSIFICATION_TYPE = U
NORAD_CAT_ID   = 67683
ELEMENT_SET_NO = 999
REV_AT_EPOCH   = 614
BSTAR          = .48008E-3
MEAN_MOTION_DOT = .29697E-3
MEAN_MOTION_DDOT = 0

